$$SOE
2460154.500000000, A.D. 2023-Jul-29 00:00:00.0000, 3.993289505063515E+08, -1.388471780854746E+08, 4.386101461555379E+07,
2460161.500000000, A.D. 2023-Aug-05 00:00:00.0000, 4.003976360640542E+08, -1.284113077547455E+08, 4.133903812447434E+07,
2460168.500000000, A.D. 2023-Aug-12 00:00:00.0000, 4.012086046233615E+08, -1.178927175208900E+08, 3.879044798366251E+07,
2460175.500000000, A.D. 2023-Aug-19 00:00:00.0000, 4.017566083957344E+08, -1.072967891163789E+08, 3.621642825946298E+07,
2460182.500000000, A.D. 2023-Aug-26 00:00:00.0000, 4.020364236484476E+08, -9.662916845627022E+07, 3.361822805841769E+07,
2460189.500000000, A.D. 2023-Sep-02 00:00:00.0000, 4.020428615102234E+08, -8.589577466580558E+07, 3.099716401190501E+07,
2460196.500000000, A.D. 2023-Sep-09 00:00:00.0000, 4.017707797783623E+08, -7.510280913678302E+07, 2.835462275155338E+07,
2460203.500000000, A.D. 2023-Sep-16 00:00:00.0000, 4.012150959445147E+08, -6.425676460634536E+07, 2.569206333986764E+07,
2460210.500000000, A.D. 2023-Sep-23 00:00:00.0000, 4.003708019031147E+08, -5.336443389645343E+07, 2.301101962426763E+07,
2460217.500000000, A.D. 2023-Sep-30 00:00:00.0000, 3.992329800522776E+08, -4.243291703747085E+07, 2.031310262509775E+07,
2460224.500000000, A.D. 2023-Oct-07 00:00:00.0000, 3.977968184866210E+08, -3.146962722621829E+07, 1.760000311034495E+07,
2460231.500000000, A.D. 2023-Oct-14 00:00:00.0000, 3.960576263706256E+08, -2.048229883454994E+07, 1.487349396896483E+07,
2460238.500000000, A.D. 2023-Oct-21 00:00:00.0000, 3.940108527593461E+08, -9.478995757822387E+06, 1.213543219186110E+07,
2460245.500000000, A.D. 2023-Oct-28 00:00:00.0000, 3.916521074738922E+08, 1.531882277072191E+06, 9.387760747462325E+06,
2460252.500000000, A.D. 2023-Nov-04 00:00:00.0000, 3.889771828065831E+08, 1.254159480410313E+07, 6.632510372471375E+06,
2460259.500000000, A.D. 2023-Nov-11 00:00:00.0000, 3.859820762479258E+08, 2.354105665183047E+07, 3.871801178286387E+06,
2460266.500000000, A.D. 2023-Nov-18 00:00:00.0000, 3.826630144571200E+08, 3.452083500581123E+07, 1.107844010503244E+06,
2460273.500000000, A.D. 2023-Nov-25 00:00:00.0000, 3.790164785371398E+08, 4.547114768456911E+07, -1.657058483409535E+06,
2460280.500000000, A.D. 2023-Dec-02 00:00:00.0000, 3.750392306151136E+08, 5.638186279028554E+07, -4.420511124580421E+06,
2460287.500000000, A.D. 2023-Dec-09 00:00:00.0000, 3.707283417608483E+08, 6.724249985645051E+07, -7.180025868751850E+06,
2460294.500000000, A.D. 2023-Dec-16 00:00:00.0000, 3.660812214656606E+08, 7.804223269266856E+07, -9.933021941213854E+06,
2460301.500000000, A.D. 2023-Dec-23 00:00:00.0000, 3.610956489385887E+08, 8.876989480658802E+07, -1.267682646664136E+07,
2460308.500000000, A.D. 2023-Dec-30 00:00:00.0000, 3.557698047613839E+08, 9.941398865222073E+07, -1.540867543626219E+07,
2460315.500000000, A.D. 2024-Jan-06 00:00:00.0000, 3.501023009922388E+08, 1.099626965472293E+08, -1.812571509459116E+07,
2460322.500000000, A.D. 2024-Jan-13 00:00:00.0000, 3.440922127246216E+08, 1.204038916475889E+08, -2.082500423771237E+07,
2460329.500000000, A.D. 2024-Jan-20 00:00:00.0000, 3.377391121189324E+08, 1.307251522537135E+08, -2.350351733588603E+07,
2460336.500000000, A.D. 2024-Jan-27 00:00:00.0000, 3.310431026399828E+08, 1.409137802834002E+08, -2.615814829161588E+07,
2460343.500000000, A.D. 2024-Feb-03 00:00:00.0000, 3.240048528021729E+08, 1.509568231320631E+08, -2.878571491931984E+07,
2460350.500000000, A.D. 2024-Feb-10 00:00:00.0000, 3.166256293956639E+08, 1.608410987783424E+08, -3.138296423995196E+07,
2460357.500000000, A.D. 2024-Feb-17 00:00:00.0000, 3.089073299936070E+08, 1.705532242672091E+08, -3.394657864147921E+07,
2460364.500000000, A.D. 2024-Feb-24 00:00:00.0000, 3.008525144044311E+08, 1.800796476788881E+08, -3.647318293933597E+07,
2460371.500000000, A.D. 2024-Mar-02 00:00:00.0000, 2.924644346956887E+08, 1.894066836080579E+08, -3.895935236589447E+07,
2460378.500000000, A.D. 2024-Mar-09 00:00:00.0000, 2.837470634983905E+08, 1.985205521049627E+08, -4.140162152073556E+07,
2460385.500000000, A.D. 2024-Mar-16 00:00:00.0000, 2.747051205355627E+08, 2.074074212404811E+08, -4.379649430470414E+07,
2460392.500000000, A.D. 2024-Mar-23 00:00:00.0000, 2.653440968002680E+08, 2.160534543096542E+08, -4.614045472695687E+07,
2460399.500000000, A.D. 2024-Mar-30 00:00:00.0000, 2.556702736530319E+08, 2.244448614933969E+08, -4.842997835426641E+07,
2460406.500000000, A.D. 2024-Apr-06 00:00:00.0000, 2.456907366114488E+08, 2.325679524030475E+08, -5.066154465995005E+07,
2460413.500000000, A.D. 2024-Apr-13 00:00:00.0000, 2.354133869146795E+08, 2.404091900623005E+08, -5.283165047395501E+07,
2460420.500000000, A.D. 2024-Apr-20 00:00:00.0000, 2.248469494510494E+08, 2.479552486452845E+08, -5.493682415226880E+07,
2460427.500000000, A.D. 2024-Apr-27 00:00:00.0000, 2.140009751001122E+08, 2.551930739854775E+08, -5.697364027836743E+07,
2460434.500000000, A.D. 2024-May-04 00:00:00.0000, 2.028858371900843E+08, 2.621099456611965E+08, -5.893873485152512E+07,
2460441.500000000, A.D. 2024-May-11 00:00:00.0000, 1.915127219772638E+08, 2.686935399990275E+08, -6.082882086487924E+07,
2460448.500000000, A.D. 2024-May-18 00:00:00.0000, 1.798936129642401E+08, 2.749319933984165E+08, -6.264070413561741E+07,
2460455.500000000, A.D. 2024-May-25 00:00:00.0000, 1.680412688931605E+08, 2.808139652968920E+08, -6.437129923113337E+07,
2460462.500000000, A.D. 2024-Jun-01 00:00:00.0000, 1.559691953698897E+08, 2.863287000007247E+08, -6.601764532762087E+07,
2460469.500000000, A.D. 2024-Jun-08 00:00:00.0000, 1.436916103528503E+08, 2.914660866130682E+08, -6.757692184043112E+07,
2460476.500000000, A.D. 2024-Jun-15 00:00:00.0000, 1.312234039953059E+08, 2.962167168531213E+08, -6.904646362875947E+07,
2460483.500000000, A.D. 2024-Jun-22 00:00:00.0000, 1.185800920380073E+08, 3.005719411949810E+08, -7.042377539832425E+07,
2460490.500000000, A.D. 2024-Jun-29 00:00:00.0000, 1.057777609408043E+08, 3.045239207721707E+08, -7.170654506897560E+07,
2460497.500000000, A.D. 2024-Jul-06 00:00:00.0000, 9.283300781595744E+07, 3.080656718889899E+08, -7.289265637445399E+07,
2460504.500000000, A.D. 2024-Jul-13 00:00:00.0000, 7.976287764511004E+07, 3.111911053264427E+08, -7.398020047938547E+07,
2460511.500000000, A.D. 2024-Jul-20 00:00:00.0000, 6.658479641697798E+07, 3.138950610090799E+08, -7.496748618238492E+07,
2460518.500000000, A.D. 2024-Jul-27 00:00:00.0000, 5.331650022865804E+07, 3.161733365751699E+08, -7.585304858420749E+07,
2460525.500000000, A.D. 2024-Aug-03 00:00:00.0000, 3.997596139175404E+07, 3.180227090774578E+08, -7.663565616018835E+07,
2460532.500000000, A.D. 2024-Aug-10 00:00:00.0000, 2.658131253163604E+07, 3.194409495204903E+08, -7.731431616148376E+07,
2460539.500000000, A.D. 2024-Aug-17 00:00:00.0000, 1.315076958582981E+07, 3.204268300814040E+08, -7.788827828387189E+07,
2460546.500000000, A.D. 2024-Aug-24 00:00:00.0000, -2.974453949869383E+05, 3.209801239356170E+08, -7.835703657324620E+07,
2460553.500000000, A.D. 2024-Aug-31 00:00:00.0000, -1.374518065482493E+07, 3.211015976885898E+08, -7.872032957726492E+07,
2460560.500000000, A.D. 2024-Sep-07 00:00:00.0000, -2.717442913306624E+07, 3.207929967191640E+08, -7.897813878918341E+07,
2460567.500000000, A.D. 2024-Sep-14 00:00:00.0000, -4.056739996291478E+07, 3.200570247217385E+08, -7.913068536220394E+07,
2460574.500000000, A.D. 2024-Sep-21 00:00:00.0000, -5.390658833964667E+07, 3.188973182534084E+08, -7.917842495355138E+07,
2460581.500000000, A.D. 2024-Sep-28 00:00:00.0000, -6.717484355833498E+07, 3.173184135316665E+08, -7.912204101435995E+07,
2460588.500000000, A.D. 2024-Oct-05 00:00:00.0000, -8.035543095802970E+07, 3.153257060342278E+08, -7.896243697905067E+07,
2460595.500000000, A.D. 2024-Oct-12 00:00:00.0000, -9.343208762967281E+07, 3.129254065049255E+08, -7.870072721985485E+07,
2460602.500000000, A.D. 2024-Oct-19 00:00:00.0000, -1.063890732261007E+08, 3.101244937576860E+08, -7.833822678056248E+07,
2460609.500000000, A.D. 2024-Oct-26 00:00:00.0000, -1.192112155983114E+08, 3.069306641636824E+08, -7.787644011105162E+07,
2460616.500000000, A.D. 2024-Nov-02 00:00:00.0000, -1.318839507959086E+08, 3.033522783737304E+08, -7.731704900371775E+07,
2460623.500000000, A.D. 2024-Nov-09 00:00:00.0000, -1.443933572292320E+08, 2.993983059954364E+08, -7.666189990673321E+07,
2460630.500000000, A.D. 2024-Nov-16 00:00:00.0000, -1.567261839551126E+08, 2.950782689078063E+08, -7.591299078262147E+07,
2460637.500000000, A.D. 2024-Nov-23 00:00:00.0000, -1.688698731140061E+08, 2.904021838169430E+08, -7.507245768171474E+07,
2460644.500000000, A.D. 2024-Nov-30 00:00:00.0000, -1.808125764632097E+08, 2.853805046242078E+08, -7.414256120651154E+07,
2460651.500000000, A.D. 2024-Dec-07 00:00:00.0000, -1.925431658087585E+08, 2.800240655934669E+08, -7.312567301448506E+07,
2460658.500000000, A.D. 2024-Dec-14 00:00:00.0000, -2.040512383064474E+08, 2.743440270543234E+08, -7.202426232875733E+07,
2460665.500000000, A.D. 2024-Dec-21 00:00:00.0000, -2.153271192790864E+08, 2.683518228584874E+08, -7.084088246634538E+07,
2460672.500000000, A.D. 2024-Dec-28 00:00:00.0000, -2.263618609359619E+08, 2.620591070155258E+08, -6.957815791102439E+07,
2460679.500000000, A.D. 2025-Jan-04 00:00:00.0000, -2.371472347856320E+08, 2.554777022086793E+08, -6.823877206173396E+07,
2460686.500000000, A.D. 2025-Jan-11 00:00:00.0000, -2.476757199754362E+08, 2.486195521217492E+08, -6.682545543178958E+07,
2460693.500000000, A.D. 2025-Jan-18 00:00:00.0000, -2.579404888888148E+08, 2.414966768745501E+08, -6.534097435369989E+07,
2460700.500000000, A.D. 2025-Jan-25 00:00:00.0000, -2.679353901675908E+08, 2.341211312490486E+08, -6.378812029814682E+07,
2460707.500000000, A.D. 2025-Feb-01 00:00:00.0000, -2.776549293736356E+08, 2.265049657795609E+08, -6.216969986118154E+07,
2460714.500000000, A.D. 2025-Feb-08 00:00:00.0000, -2.870942476222266E+08, 2.186601907830429E+08, -6.048852544584932E+07,
2460721.500000000, A.D. 2025-Feb-15 00:00:00.0000, -2.962490985303715E+08, 2.105987433232923E+08, -5.874740665409084E+07,
$$EOE